[
  {
    "OBJECT_NAME": "STARLINK-30483",
    "OBJECT_ID": "23147B",
    "EPOCH": "2025-11-10T14:02:33.369216",
    "MEAN_MOTION": 15.27580868,
    "ECCENTRICITY": 0.0001138,
    "INCLINATION": 42.9997,
    "RA_OF_ASC_NODE": 132.265,
    "ARG_OF_PERICENTER": 260.7189,
    "MEAN_ANOMALY": 99.3534,
    "EPHEMERIS_TYPE": 0,
    "CLASSIFICATION_TYPE": "U",
    "NORAD_CAT_ID": 57914,
    "ELEMENT_SET_NO": 999,
    "REV_AT_EPOCH": 12009,
    "BSTAR": 4.3365e-05,
    "MEAN_MOTION_DOT": 9.31e-06,
    "MEAN_MOTION_DDOT": 0.0,
    "TLE_LINE1": "1 57914U 23147B   25314.58510844  .00000931  00000+0  43365-4 0  9990",
    "TLE_LINE2": "2 57914  42.9997 132.2650 0001138 260.7189  99.3534 15.27580868120098",
    "COMMENT": "Grouped by shell and plane from TLE"
  },
  {
    "OBJECT_NAME": "STARLINK-30499",
    "OBJECT_ID": "23147F",
    "EPOCH": "2025-11-10T21:27:37.888128",
    "MEAN_MOTION": 15.27576625,
    "ECCENTRICITY": 0.000145,
    "INCLINATION": 43.0033,
    "RA_OF_ASC_NODE": 131.1113,
    "ARG_OF_PERICENTER": 264.0981,
    "MEAN_ANOMALY": 95.9706,
    "EPHEMERIS_TYPE": 0,
    "CLASSIFICATION_TYPE": "U",
    "NORAD_CAT_ID": 57918,
    "ELEMENT_SET_NO": 999,
    "REV_AT_EPOCH": 12016,
    "BSTAR": 8.624900000000001e-05,
    "MEAN_MOTION_DOT": 2.112e-05,
    "MEAN_MOTION_DDOT": 0.0,
    "TLE_LINE1": "1 57918U 23147F   25314.89418852  .00002112  00000+0  86249-4 0  9995",
    "TLE_LINE2": "2 57918  43.0033 131.1113 0001450 264.0981  95.9706 15.27576625120168",
    "COMMENT": "Grouped by shell and plane from TLE"
  },
  {
    "OBJECT_NAME": "STARLINK-31328",
    "OBJECT_ID": "24020E",
    "EPOCH": "2025-11-11T04:56:55.476960",
    "MEAN_MOTION": 15.30198401,
    "ECCENTRICITY": 0.00013,
    "INCLINATION": 53.1581,
    "RA_OF_ASC_NODE": 137.556,
    "ARG_OF_PERICENTER": 98.1007,
    "MEAN_ANOMALY": 262.0141,
    "EPHEMERIS_TYPE": 0,
    "CLASSIFICATION_TYPE": "U",
    "NORAD_CAT_ID": 58880,
    "ELEMENT_SET_NO": 999,
    "REV_AT_EPOCH": 10014,
    "BSTAR": 2.6758e-05,
    "MEAN_MOTION_DOT": 4.33e-06,
    "MEAN_MOTION_DDOT": 0.0,
    "TLE_LINE1": "1 58880U 24020E   25315.20619765  .00000433  00000+0  26758-4 0  9990",
    "TLE_LINE2": "2 58880  53.1581 137.5560 0001300  98.1007 262.0141 15.30198401100144",
    "COMMENT": "Grouped by shell and plane from TLE"
  },
  {
    "OBJECT_NAME": "STARLINK-31378",
    "OBJECT_ID": "24027B",
    "EPOCH": "2025-11-11T05:40:13.003104",
    "MEAN_MOTION": 15.30188326,
    "ECCENTRICITY": 6.18e-05,
    "INCLINATION": 53.1569,
    "RA_OF_ASC_NODE": 139.7524,
    "ARG_OF_PERICENTER": 104.7121,
    "MEAN_ANOMALY": 255.3949,
    "EPHEMERIS_TYPE": 0,
    "CLASSIFICATION_TYPE": "U",
    "NORAD_CAT_ID": 58932,
    "ELEMENT_SET_NO": 999,
    "REV_AT_EPOCH": 9919,
    "BSTAR": 0.0,
    "MEAN_MOTION_DOT": -1.072e-05,
    "MEAN_MOTION_DDOT": 0.0,
    "TLE_LINE1": "1 58932U 24027B   25315.23626161 -.00001072  00000+0 -24104-4 0  9991",
    "TLE_LINE2": "2 58932  53.1569 139.7524 0000618 104.7121 255.3949 15.30188326 99192",
    "COMMENT": "Grouped by shell and plane from TLE"
  },
  {
    "OBJECT_NAME": "STARLINK-31337",
    "OBJECT_ID": "24027D",
    "EPOCH": "2025-11-11T05:21:58.358304",
    "MEAN_MOTION": 15.30194329,
    "ECCENTRICITY": 0.0001893,
    "INCLINATION": 53.1562,
    "RA_OF_ASC_NODE": 139.6743,
    "ARG_OF_PERICENTER": 88.9838,
    "MEAN_ANOMALY": 271.138,
    "EPHEMERIS_TYPE": 0,
    "CLASSIFICATION_TYPE": "U",
    "NORAD_CAT_ID": 58934,
    "ELEMENT_SET_NO": 999,
    "REV_AT_EPOCH": 9919,
    "BSTAR": 9.2429e-05,
    "MEAN_MOTION_DOT": 2.378e-05,
    "MEAN_MOTION_DDOT": 0.0,
    "TLE_LINE1": "1 58934U 24027D   25315.22359211  .00002378  00000+0  92429-4 0  9994",
    "TLE_LINE2": "2 58934  53.1562 139.6743 0001893  88.9838 271.1380 15.30194329 99198",
    "COMMENT": "Grouped by shell and plane from TLE"
  },
  {
    "OBJECT_NAME": "STARLINK-31345",
    "OBJECT_ID": "24027L",
    "EPOCH": "2025-11-11T08:00:03.000384",
    "MEAN_MOTION": 15.30177143,
    "ECCENTRICITY": 8.97e-05,
    "INCLINATION": 53.1589,
    "RA_OF_ASC_NODE": 139.1847,
    "ARG_OF_PERICENTER": 83.8936,
    "MEAN_ANOMALY": 149.5885,
    "EPHEMERIS_TYPE": 0,
    "CLASSIFICATION_TYPE": "U",
    "NORAD_CAT_ID": 58941,
    "ELEMENT_SET_NO": 999,
    "REV_AT_EPOCH": 588,
    "BSTAR": 0.0020358,
    "MEAN_MOTION_DOT": 0.00060385,
    "MEAN_MOTION_DDOT": 0.0,
    "TLE_LINE1": "1 58941U 24027L   25315.33336806  .00060385  00000+0  20358-2 0  9991",
    "TLE_LINE2": "2 58941  53.1589 139.1847 0000897  83.8936 149.5885 15.30177143  5887",
    "COMMENT": "Grouped by shell and plane from TLE"
  },
  {
    "OBJECT_NAME": "STARLINK-31346",
    "OBJECT_ID": "24027N",
    "EPOCH": "2025-11-10T21:46:08.427936",
    "MEAN_MOTION": 15.30201119,
    "ECCENTRICITY": 0.0001161,
    "INCLINATION": 53.1604,
    "RA_OF_ASC_NODE": 139.1326,
    "ARG_OF_PERICENTER": 88.1762,
    "MEAN_ANOMALY": 271.9372,
    "EPHEMERIS_TYPE": 0,
    "CLASSIFICATION_TYPE": "U",
    "NORAD_CAT_ID": 58943,
    "ELEMENT_SET_NO": 999,
    "REV_AT_EPOCH": 9917,
    "BSTAR": 6.9831e-05,
    "MEAN_MOTION_DOT": 1.71e-05,
    "MEAN_MOTION_DDOT": 0.0,
    "TLE_LINE1": "1 58943U 24027N   25314.90704199  .00001710  00000+0  69831-4 0  9997",
    "TLE_LINE2": "2 58943  53.1604 139.1326 0001161  88.1762 271.9372 15.30201119 99176",
    "COMMENT": "Grouped by shell and plane from TLE"
  },
  {
    "OBJECT_NAME": "STARLINK-31331",
    "OBJECT_ID": "24027R",
    "EPOCH": "2025-11-11T05:55:24.486816",
    "MEAN_MOTION": 15.30178351,
    "ECCENTRICITY": 0.0001268,
    "INCLINATION": 53.1612,
    "RA_OF_ASC_NODE": 139.8156,
    "ARG_OF_PERICENTER": 91.6133,
    "MEAN_ANOMALY": 268.5013,
    "EPHEMERIS_TYPE": 0,
    "CLASSIFICATION_TYPE": "U",
    "NORAD_CAT_ID": 58946,
    "ELEMENT_SET_NO": 999,
    "REV_AT_EPOCH": 9919,
    "BSTAR": 0.00042742999999999996,
    "MEAN_MOTION_DOT": 0.00012313,
    "MEAN_MOTION_DDOT": 0.0,
    "TLE_LINE1": "1 58946U 24027R   25315.24681119  .00012313  00000+0  42743-3 0  9997",
    "TLE_LINE2": "2 58946  53.1612 139.8156 0001268  91.6133 268.5013 15.30178351 99192",
    "COMMENT": "Grouped by shell and plane from TLE"
  },
  {
    "OBJECT_NAME": "STARLINK-31116",
    "OBJECT_ID": "24027S",
    "EPOCH": "2025-11-11T05:59:57.877152",
    "MEAN_MOTION": 15.30196335,
    "ECCENTRICITY": 0.0001372,
    "INCLINATION": 53.1585,
    "RA_OF_ASC_NODE": 139.8348,
    "ARG_OF_PERICENTER": 86.0531,
    "MEAN_ANOMALY": 274.0627,
    "EPHEMERIS_TYPE": 0,
    "CLASSIFICATION_TYPE": "U",
    "NORAD_CAT_ID": 58947,
    "ELEMENT_SET_NO": 999,
    "REV_AT_EPOCH": 9919,
    "BSTAR": 2.6249000000000002e-05,
    "MEAN_MOTION_DOT": 4.18e-06,
    "MEAN_MOTION_DDOT": 0.0,
    "TLE_LINE1": "1 58947U 24027S   25315.24997543  .00000418  00000+0  26249-4 0  9996",
    "TLE_LINE2": "2 58947  53.1585 139.8348 0001372  86.0531 274.0627 15.30196335 99196",
    "COMMENT": "Grouped by shell and plane from TLE"
  },
  {
    "OBJECT_NAME": "STARLINK-31311",
    "OBJECT_ID": "24027T",
    "EPOCH": "2025-11-10T21:47:36.014208",
    "MEAN_MOTION": 15.30324702,
    "ECCENTRICITY": 6.03e-05,
    "INCLINATION": 53.1592,
    "RA_OF_ASC_NODE": 139.13,
    "ARG_OF_PERICENTER": 109.4296,
    "MEAN_ANOMALY": 250.6771,
    "EPHEMERIS_TYPE": 0,
    "CLASSIFICATION_TYPE": "U",
    "NORAD_CAT_ID": 58948,
    "ELEMENT_SET_NO": 999,
    "REV_AT_EPOCH": 9917,
    "BSTAR": 0.0,
    "MEAN_MOTION_DOT": -0.00029249,
    "MEAN_MOTION_DDOT": 0.0,
    "TLE_LINE1": "1 58948U 24027T   25314.90805572 -.00029249  00000+0 -97553-3 0  9999",
    "TLE_LINE2": "2 58948  53.1592 139.1300 0000603 109.4296 250.6771 15.30324702 99179",
    "COMMENT": "Grouped by shell and plane from TLE"
  },
  {
    "OBJECT_NAME": "STARLINK-31330",
    "OBJECT_ID": "24027W",
    "EPOCH": "2025-11-11T05:56:00.053376",
    "MEAN_MOTION": 15.30196805,
    "ECCENTRICITY": 0.0001476,
    "INCLINATION": 53.1609,
    "RA_OF_ASC_NODE": 136.9958,
    "ARG_OF_PERICENTER": 88.2539,
    "MEAN_ANOMALY": 271.8631,
    "EPHEMERIS_TYPE": 0,
    "CLASSIFICATION_TYPE": "U",
    "NORAD_CAT_ID": 58951,
    "ELEMENT_SET_NO": 999,
    "REV_AT_EPOCH": 9923,
    "BSTAR": 4.7225e-05,
    "MEAN_MOTION_DOT": 1.039e-05,
    "MEAN_MOTION_DDOT": 0.0,
    "TLE_LINE1": "1 58951U 24027W   25315.24722284  .00001039  00000+0  47225-4 0  9996",
    "TLE_LINE2": "2 58951  53.1609 136.9958 0001476  88.2539 271.8631 15.30196805 99237",
    "COMMENT": "Grouped by shell and plane from TLE"
  },
  {
    "OBJECT_NAME": "STARLINK-31578",
    "OBJECT_ID": "24057B",
    "EPOCH": "2025-11-11T04:56:35.144448",
    "MEAN_MOTION": 15.2758597,
    "ECCENTRICITY": 0.0001033,
    "INCLINATION": 42.998,
    "RA_OF_ASC_NODE": 135.7644,
    "ARG_OF_PERICENTER": 274.9183,
    "MEAN_ANOMALY": 85.1551,
    "EPHEMERIS_TYPE": 0,
    "CLASSIFICATION_TYPE": "U",
    "NORAD_CAT_ID": 59321,
    "ELEMENT_SET_NO": 999,
    "REV_AT_EPOCH": 9172,
    "BSTAR": 9.5295e-05,
    "MEAN_MOTION_DOT": 2.362e-05,
    "MEAN_MOTION_DDOT": 0.0,
    "TLE_LINE1": "1 59321U 24057B   25315.20596232  .00002362  00000+0  95295-4 0  9999",
    "TLE_LINE2": "2 59321  42.9980 135.7644 0001033 274.9183  85.1551 15.27585970 91728",
    "COMMENT": "Grouped by shell and plane from TLE"
  },
  {
    "OBJECT_NAME": "STARLINK-31530",
    "OBJECT_ID": "24057C",
    "EPOCH": "2025-11-10T20:51:12.032064",
    "MEAN_MOTION": 15.27595035,
    "ECCENTRICITY": 7.23e-05,
    "INCLINATION": 43.0003,
    "RA_OF_ASC_NODE": 138.4013,
    "ARG_OF_PERICENTER": 254.3969,
    "MEAN_ANOMALY": 105.6803,
    "EPHEMERIS_TYPE": 0,
    "CLASSIFICATION_TYPE": "U",
    "NORAD_CAT_ID": 59322,
    "ELEMENT_SET_NO": 999,
    "REV_AT_EPOCH": 9166,
    "BSTAR": 0.00010496999999999999,
    "MEAN_MOTION_DOT": 2.629e-05,
    "MEAN_MOTION_DDOT": 0.0,
    "TLE_LINE1": "1 59322U 24057C   25314.86888926  .00002629  00000+0  10497-3 0  9991",
    "TLE_LINE2": "2 59322  43.0003 138.4013 0000723 254.3969 105.6803 15.27595035 91660",
    "COMMENT": "Grouped by shell and plane from TLE"
  }
]